ONEWEB-0549             
1 56051U 23043F   25094.58008843  .00000033  00000+0  47907-4 0  9991
2 56051  87.9305 331.4454 0001594  69.5945 290.5360 13.21823205100285
ONEWEB-0550             
1 56052U 23043G   25094.56747517 -.00000010  00000+0 -56674-4 0  9996
2 56052  87.9300 331.4453 0001945  81.9323 278.2031 13.21823567100287
ONEWEB-0551             
1 56053U 23043H   25094.45656482  .00000120  00000+0  28372-3 0  9998
2 56053  87.9119 346.6562 0001798  71.7303 288.4023 13.15549124 98711
ONEWEB-0552             
1 56054U 23043J   25094.40977673  .00000032  00000+0  45828-4 0  9990
2 56054  87.9300 331.4858 0001983  73.5972 286.5380 13.21824127100267
ONEWEB-0553             
1 56055U 23043K   25094.67947880 -.00000025  00000+0 -99520-4 0  9999
2 56055  87.9051 316.1921 0001743  95.6649 264.4681 13.16593709102187
ONEWEB-0554             
1 56056U 23043L   25094.59081488  .00000000  00000+0 -34775-4 0  9997
2 56056  87.9051 316.2390 0002328  84.0171 276.1225 13.16593490101248
ONEWEB-0555             
1 56057U 23043M   25094.85680470 -.00000040  00000+0 -13773-3 0  9992
2 56057  87.9050 316.1513 0001757 105.0637 255.0689 13.16594686102193
ONEWEB-0557             
1 56058U 23043N   25094.56706141 -.00000059  00000+0 -18842-3 0  9997
2 56058  87.9050 316.2331 0002319 107.9598 252.1786 13.16594225101245
